{
  "type": "FeatureCollection",
  "features": [
    {
      "type": "Feature",
      "properties": {
        "norad_id": 35116,
        "name": "FENGYUN 1C DEB",
        "group": "fengyun-1c-debris",
        "lat": 49.726358022003744,
        "lon": 37.341681272618125,
        "alt_km": 773.840910286317,
        "timestamp": "2025-12-27T22:26:48.890141+00:00",
        "meta_object_name": "FENGYUN 1C DEB",
        "meta_object_id": "1999-025DKU",
        "meta_epoch": "2025-12-26T20:56:18.237120",
        "meta_mean_motion": 14.25138665,
        "meta_eccentricity": 0.0058509,
        "meta_inclination": 98.6605,
        "meta_ra_of_asc_node": 46.656,
        "meta_arg_of_pericenter": 8.1775,
        "meta_mean_anomaly": 352.0345,
        "meta_ephemeris_type": 0,
        "meta_classification_type": "U",
        "meta_norad_cat_id": 35116,
        "meta_element_set_no": 999,
        "meta_rev_at_epoch": 60161,
        "meta_bstar": 0.0011134,
        "meta_mean_motion_dot": 2.617e-05,
        "meta_mean_motion_ddot": 0,
        "tle_line1": "1 35116U 99025DKU 25360.87243330  .00002617  00000+0  11134-2 0  9994",
        "tle_line2": "2 35116  98.6605  46.6560 0058509   8.1775 352.0345 14.25138665601611"
      },
      "geometry": {
        "type": "Point",
        "coordinates": [
          37.341681272618125,
          49.726358022003744
        ]
      }
    },
    {
      "type": "Feature",
      "properties": {
        "norad_id": 35121,
        "name": "FENGYUN 1C DEB",
        "group": "fengyun-1c-debris",
        "lat": -18.76994656023916,
        "lon": 41.06141258478742,
        "alt_km": 976.0707567956688,
        "timestamp": "2025-12-27T22:26:48.890151+00:00",
        "meta_object_name": "FENGYUN 1C DEB",
        "meta_object_id": "1999-025DKZ",
        "meta_epoch": "2025-12-24T09:45:12.648096",
        "meta_mean_motion": 14.04760226,
        "meta_eccentricity": 0.01583792,
        "meta_inclination": 98.3006,
        "meta_ra_of_asc_node": 220.6752,
        "meta_arg_of_pericenter": 63.7329,
        "meta_mean_anomaly": 298.0018,
        "meta_ephemeris_type": 0,
        "meta_classification_type": "U",
        "meta_norad_cat_id": 35121,
        "meta_element_set_no": 999,
        "meta_rev_at_epoch": 61255,
        "meta_bstar": 0.00033495737,
        "meta_mean_motion_dot": 5.63e-06,
        "meta_mean_motion_ddot": 0,
        "tle_line1": "1 35121U 99025DKZ 25358.40639639  .00000563  00000+0  33496-3 0  9991",
        "tle_line2": "2 35121  98.3006 220.6752 0158379  63.7329 298.0018 14.04760226612556"
      },
      "geometry": {
        "type": "Point",
        "coordinates": [
          41.06141258478742,
          -18.76994656023916
        ]
      }
    },
    {
      "type": "Feature",
      "properties": {
        "norad_id": 35122,
        "name": "FENGYUN 1C DEB",
        "group": "fengyun-1c-debris",
        "lat": -81.12476944120682,
        "lon": 97.65910442343478,
        "alt_km": 869.6194975493754,
        "timestamp": "2025-12-27T22:26:48.890161+00:00",
        "meta_object_name": "FENGYUN 1C DEB",
        "meta_object_id": "1999-025DLA",
        "meta_epoch": "2025-12-23T18:40:36.959520",
        "meta_mean_motion": 14.14136172,
        "meta_eccentricity": 0.00257053,
        "meta_inclination": 98.6712,
        "meta_ra_of_asc_node": 15.8646,
        "meta_arg_of_pericenter": 127.0383,
        "meta_mean_anomaly": 233.3147,
        "meta_ephemeris_type": 0,
        "meta_classification_type": "U",
        "meta_norad_cat_id": 35122,
        "meta_element_set_no": 999,
        "meta_rev_at_epoch": 64023,
        "meta_bstar": 0.00025927535,
        "meta_mean_motion_dot": 4.53e-06,
        "meta_mean_motion_ddot": 0,
        "tle_line1": "1 35122U 99025DLA 25357.77820555  .00000453  00000+0  25928-3 0  9999",
        "tle_line2": "2 35122  98.6712  15.8646 0025705 127.0383 233.3147 14.14136172640239"
      },
      "geometry": {
        "type": "Point",
        "coordinates": [
          97.65910442343478,
          -81.12476944120682
        ]
      }
    },
    {
      "type": "Feature",
      "properties": {
        "norad_id": 35123,
        "name": "FENGYUN 1C DEB",
        "group": "fengyun-1c-debris",
        "lat": -75.6713568182296,
        "lon": -33.784323605672654,
        "alt_km": 843.0075576690033,
        "timestamp": "2025-12-27T22:26:48.890171+00:00",
        "meta_object_name": "FENGYUN 1C DEB",
        "meta_object_id": "1999-025DLB",
        "meta_epoch": "2025-12-26T18:15:29.262240",
        "meta_mean_motion": 14.24252984,
        "meta_eccentricity": 0.00494198,
        "meta_inclination": 99.1222,
        "meta_ra_of_asc_node": 183.9761,
        "meta_arg_of_pericenter": 36.5408,
        "meta_mean_anomaly": 323.9124,
        "meta_ephemeris_type": 0,
        "meta_classification_type": "U",
        "meta_norad_cat_id": 35123,
        "meta_element_set_no": 999,
        "meta_rev_at_epoch": 61273,
        "meta_bstar": 0.00057166114,
        "meta_mean_motion_dot": 1.288e-05,
        "meta_mean_motion_ddot": 0,
        "tle_line1": "1 35123U 99025DLB 25360.76075535  .00001288  00000+0  57166-3 0  9999",
        "tle_line2": "2 35123  99.1222 183.9761 0049419  36.5408 323.9124 14.24252984612733"
      },
      "geometry": {
        "type": "Point",
        "coordinates": [
          -33.784323605672654,
          -75.6713568182296
        ]
      }
    },
    {
      "type": "Feature",
      "properties": {
        "norad_id": 35125,
        "name": "FENGYUN 1C DEB",
        "group": "fengyun-1c-debris",
        "lat": 68.42813920320133,
        "lon": -146.36055727106998,
        "alt_km": 802.0640011341657,
        "timestamp": "2025-12-27T22:26:48.890180+00:00",
        "meta_object_name": "FENGYUN 1C DEB",
        "meta_object_id": "1999-025DLD",
        "meta_epoch": "2025-12-27T06:51:05.927328",
        "meta_mean_motion": 14.33234133,
        "meta_eccentricity": 0.0052026,
        "meta_inclination": 98.2159,
        "meta_ra_of_asc_node": 11.5884,
        "meta_arg_of_pericenter": 250.3938,
        "meta_mean_anomaly": 109.1627,
        "meta_ephemeris_type": 0,
        "meta_classification_type": "U",
        "meta_norad_cat_id": 35125,
        "meta_element_set_no": 999,
        "meta_rev_at_epoch": 31490,
        "meta_bstar": 0.0013975,
        "meta_mean_motion_dot": 3.861e-05,
        "meta_mean_motion_ddot": 0,
        "tle_line1": "1 35125U 99025DLD 25361.28548527  .00003861  00000+0  13975-2 0  9993",
        "tle_line2": "2 35125  98.2159  11.5884 0052026 250.3938 109.1627 14.33234133314904"
      },
      "geometry": {
        "type": "Point",
        "coordinates": [
          -146.36055727106998,
          68.42813920320133
        ]
      }
    },
    {
      "type": "Feature",
      "properties": {
        "norad_id": 35130,
        "name": "FENGYUN 1C DEB",
        "group": "fengyun-1c-debris",
        "lat": -15.10178092640071,
        "lon": 26.507772919277972,
        "alt_km": 571.1458991818763,
        "timestamp": "2025-12-27T22:26:48.890190+00:00",
        "meta_object_name": "FENGYUN 1C DEB",
        "meta_object_id": "1999-025DLJ",
        "meta_epoch": "2025-12-21T20:07:04.434528",
        "meta_mean_motion": 15.01765435,
        "meta_eccentricity": 0.00121415,
        "meta_inclination": 99.0319,
        "meta_ra_of_asc_node": 201.8749,
        "meta_arg_of_pericenter": 44.6238,
        "meta_mean_anomaly": 315.5957,
        "meta_ephemeris_type": 0,
        "meta_classification_type": "U",
        "meta_norad_cat_id": 35130,
        "meta_element_set_no": 999,
        "meta_rev_at_epoch": 65050,
        "meta_bstar": 0.006798984,
        "meta_mean_motion_dot": 0.00089702,
        "meta_mean_motion_ddot": 0,
        "tle_line1": "1 35130U 99025DLJ 25355.83824577  .00089702  00000+0  67990-2 0  9999",
        "tle_line2": "2 35130  99.0319 201.8749 0012141  44.6238 315.5957 15.01765435650500"
      },
      "geometry": {
        "type": "Point",
        "coordinates": [
          26.507772919277972,
          -15.10178092640071
        ]
      }
    },
    {
      "type": "Feature",
      "properties": {
        "norad_id": 35135,
        "name": "FENGYUN 1C DEB",
        "group": "fengyun-1c-debris",
        "lat": -28.686286895369015,
        "lon": 15.04500917863407,
        "alt_km": 823.1143956030373,
        "timestamp": "2025-12-27T22:26:48.890200+00:00",
        "meta_object_name": "FENGYUN 1C DEB",
        "meta_object_id": "1999-025DLP",
        "meta_epoch": "2025-12-27T07:23:28.519872",
        "meta_mean_motion": 14.22571173,
        "meta_eccentricity": 0.0081057,
        "meta_inclination": 98.5642,
        "meta_ra_of_asc_node": 9.7056,
        "meta_arg_of_pericenter": 241.7973,
        "meta_mean_anomaly": 117.5002,
        "meta_ephemeris_type": 0,
        "meta_classification_type": "U",
        "meta_norad_cat_id": 35135,
        "meta_element_set_no": 999,
        "meta_rev_at_epoch": 88031,
        "meta_bstar": 0.00050839,
        "meta_mean_motion_dot": 1.131e-05,
        "meta_mean_motion_ddot": 0,
        "tle_line1": "1 35135U 99025DLP 25361.30796898  .00001131  00000+0  50839-3 0  9992",
        "tle_line2": "2 35135  98.5642   9.7056 0081057 241.7973 117.5002 14.22571173880313"
      },
      "geometry": {
        "type": "Point",
        "coordinates": [
          15.04500917863407,
          -28.686286895369015
        ]
      }
    }
  ]
}